{
    "links": {
        "self": "http://www.neowsapp.com/rest/v1/neo/3796289?api_key=iIulBulltgU6a56xZRHN4H3l9WmuAYTsLGpBGhQ2"
    },
    "id": "3796289",
    "neo_reference_id": "3796289",
    "name": "(2017 YR8)",
    "designation": "2017 YR8",
    "nasa_jpl_url": "http://ssd.jpl.nasa.gov/sbdb.cgi?sstr=3796289",
    "absolute_magnitude_h": 24.0,
    "estimated_diameter": {
        "kilometers": {
            "estimated_diameter_min": 0.0421264611,
            "estimated_diameter_max": 0.0941976306
        },
        "meters": {
            "estimated_diameter_min": 42.1264610556,
            "estimated_diameter_max": 94.1976305719
        },
        "miles": {
            "estimated_diameter_min": 0.0261761612,
            "estimated_diameter_max": 0.0585316759
        },
        "feet": {
            "estimated_diameter_min": 138.2101784897,
            "estimated_diameter_max": 309.0473542854
        }
    },
    "is_potentially_hazardous_asteroid": false,
    "close_approach_data": [
        {
            "close_approach_date": "2017-12-14",
            "close_approach_date_full": "2017-Dec-14 13:55",
            "epoch_date_close_approach": 1513259700000,
            "relative_velocity": {
                "kilometers_per_second": "12.8043191986",
                "kilometers_per_hour": "46095.5491150151",
                "miles_per_hour": "28641.9816153826"
            },
            "miss_distance": {
                "astronomical": "0.0323391903",
                "lunar": "12.5799450267",
                "kilometers": "4837873.986404661",
                "miles": "3006115.4997238818"
            },
            "orbiting_body": "Earth"
        }
    ],
    "orbital_data": {
        "orbit_id": "1",
        "orbit_determination_date": "2018-01-06 14:42:05",
        "first_observation_date": "2017-12-28",
        "last_observation_date": "2018-01-06",
        "data_arc_in_days": 9,
        "observations_used": 19,
        "orbit_uncertainty": "9",
        "minimum_orbit_intersection": ".0239355",
        "jupiter_tisserand_invariant": "4.102",
        "epoch_osculation": "2458118.5",
        "eccentricity": ".5004742253723544",
        "semi_major_axis": "1.665421310715482",
        "inclination": "3.342483731724199",
        "ascending_node_longitude": "284.7296673956038",
        "orbital_period": "785.0270167080189",
        "perihelion_distance": ".8319208703165398",
        "perihelion_argument": "97.47911479052441",
        "aphelion_distance": "2.498921751114424",
        "perihelion_time": "2458060.079036099762",
        "mean_anomaly": "26.79085758383281",
        "mean_motion": ".4585829434375983",
        "equinox": "J2000",
        "orbit_class": {
            "orbit_class_type": "APO",
            "orbit_class_description": "Near-Earth asteroid orbits which cross the Earth’s orbit similar to that of 1862 Apollo",
            "orbit_class_range": "a (semi-major axis) > 1.0 AU; q (perihelion) < 1.017 AU"
        }
    },
    "is_sentry_object": false
}